ONEWEB-0032             
1 45141U 20008L   23276.92842324  .00000011  00000+0 -33784-5 0  9991
2 45141  87.8877 232.3545 0002138  77.9994 282.1373 13.10375577179007
ONEWEB-0033             
1 45142U 20008M   23276.90242051 -.00000578  00000+0 -16916-2 0  9995
2 45142  87.8871 232.3671 0001902  69.9733 290.1599 13.10367924178917
ONEWEB-0035             
1 45143U 20008N   23276.93493384  .00000449  00000+0  12490-2 0  9994
2 45143  87.8873 232.3343 0001972  74.8609 285.2737 13.10377183178647
ONEWEB-0036             
1 45144U 20008P   23276.92515345 -.00000850  00000+0 -24708-2 0  9999
2 45144  87.8877 232.2969 0002029  84.0043 276.1316 13.10375621179079
ONEWEB-0038             
1 45145U 20008Q   23276.87581610 -.00000386  00000+0 -11266-2 0  9991
2 45145  87.8983 217.1816 0002835  79.9032 280.2416 13.11310219180923
ONEWEB-0039             
1 45146U 20008R   23276.90566367 -.00000656  00000+0 -19166-2 0  9995
2 45146  87.8867 232.3207 0002259  93.7387 266.3999 13.10368115178863
ONEWEB-0040             
1 45147U 20008S   23276.89916822 -.00000483  00000+0 -14200-2 0  9991
2 45147  87.8872 232.3072 0002075  81.4268 278.7094 13.10367178179354
ONEWEB-0041             
1 45148U 20008T   23276.90088357  .00000109  00000+0  15231-3 0  9996
2 45148  87.9447 208.9151 0017358 175.4578 184.6732 13.48416018184998
